{
  "type": "FeatureCollection",
  "features": [
    {
      "type": "Feature",
      "properties": {
        "khasra_number": "245/2",
        "village": "Rau",
        "tehsil": "Rau",
        "district": "Indore",
        "area_hectares": 1.25,
        "soil_class": "Black Cotton Soil / काली मिट्टी",
        "irrigation": "Canal + Tube Well",
        "land_type": "Agricultural (Irrigated)"
      },
      "geometry": {
        "type": "Polygon",
        "coordinates": [
          [
            [
              75.8105,
              22.6302
            ],
            [
              75.8142,
              22.6305
            ],
            [
              75.8139,
              22.6341
            ],
            [
              75.8098,
              22.6338
            ],
            [
              75.8105,
              22.6302
            ]
          ]
        ]
      }
    },
    {
      "type": "Feature",
      "properties": {
        "khasra_number": "245/1",
        "village": "Rau",
        "tehsil": "Rau",
        "district": "Indore",
        "area_hectares": 1.1,
        "soil_class": "Black Cotton Soil",
        "irrigation": "Tube Well",
        "land_type": "Agricultural (Irrigated)"
      },
      "geometry": {
        "type": "Polygon",
        "coordinates": [
          [
            [
              75.8142,
              22.6305
            ],
            [
              75.8185,
              22.6308
            ],
            [
              75.8181,
              22.6345
            ],
            [
              75.8139,
              22.6341
            ],
            [
              75.8142,
              22.6305
            ]
          ]
        ]
      }
    },
    {
      "type": "Feature",
      "properties": {
        "khasra_number": "318/1",
        "village": "Kanadia",
        "tehsil": "Kanadia",
        "district": "Indore",
        "area_hectares": 2.1,
        "soil_class": "Alluvial Loam / दोमट",
        "irrigation": "Rainfed / असिंचित",
        "land_type": "Agricultural (Non-Irrigated)"
      },
      "geometry": {
        "type": "Polygon",
        "coordinates": [
          [
            [
              75.8202,
              22.636
            ],
            [
              75.8265,
              22.6364
            ],
            [
              75.826,
              22.6415
            ],
            [
              75.8198,
              22.641
            ],
            [
              75.8202,
              22.636
            ]
          ]
        ]
      }
    },
    {
      "type": "Feature",
      "properties": {
        "khasra_number": "102/3",
        "village": "Mangliya",
        "tehsil": "Sanwer",
        "district": "Indore",
        "area_hectares": 0.85,
        "soil_class": "Clay Loam",
        "irrigation": "Canal",
        "land_type": "Agricultural (Irrigated)"
      },
      "geometry": {
        "type": "Polygon",
        "coordinates": [
          [
            [
              75.805,
              22.6241
            ],
            [
              75.8095,
              22.6244
            ],
            [
              75.809,
              22.6285
            ],
            [
              75.8045,
              22.628
            ],
            [
              75.805,
              22.6241
            ]
          ]
        ]
      }
    },
    {
      "type": "Feature",
      "properties": {
        "khasra_number": "512/4",
        "village": "Rau",
        "tehsil": "Rau",
        "district": "Indore",
        "area_hectares": 1.8,
        "soil_class": "Black Cotton Soil",
        "irrigation": "Tube Well",
        "land_type": "Agricultural"
      },
      "geometry": {
        "type": "Polygon",
        "coordinates": [
          [
            [
              75.811,
              22.6345
            ],
            [
              75.8155,
              22.6348
            ],
            [
              75.815,
              22.639
            ],
            [
              75.8105,
              22.6385
            ],
            [
              75.811,
              22.6345
            ]
          ]
        ]
      }
    },
    {
      "type": "Feature",
      "properties": {
        "khasra_number": "409/1",
        "village": "Kanadia",
        "tehsil": "Kanadia",
        "district": "Indore",
        "area_hectares": 150.0,
        "soil_class": "Industrial Mixed",
        "irrigation": "Commercial Pipeline",
        "land_type": "Commercial / Mixed"
      },
      "geometry": {
        "type": "Polygon",
        "coordinates": [
          [
            [
              75.827,
              22.642
            ],
            [
              75.836,
              22.6425
            ],
            [
              75.835,
              22.651
            ],
            [
              75.826,
              22.6505
            ],
            [
              75.827,
              22.642
            ]
          ]
        ]
      }
    }
  ],
  "crs": {
    "type": "name",
    "properties": {
      "name": "urn:ogc:def:crs:OGC:1.3:CRS84"
    }
  }
}